[
    {
        "CCSDS_OMM_VERS": "3.0",
        "COMMENT": "GENERATED VIA SPACE-TRACK.ORG API",
        "CREATION_DATE": "2025-05-03T17:28:03",
        "ORIGINATOR": "18 SPCS",
        "OBJECT_NAME": "COSMOS 2544 (GLONASS)",
        "OBJECT_ID": "2019-088A",
        "CENTER_NAME": "EARTH",
        "REF_FRAME": "TEME",
        "TIME_SYSTEM": "UTC",
        "MEAN_ELEMENT_THEORY": "SGP4",
        "EPOCH": "2025-05-03T08:44:19.561056",
        "MEAN_MOTION": "2.13101967",
        "ECCENTRICITY": "0.00148460",
        "INCLINATION": "65.3427",
        "RA_OF_ASC_NODE": "87.4309",
        "ARG_OF_PERICENTER": "262.5409",
        "MEAN_ANOMALY": "97.2679",
        "EPHEMERIS_TYPE": "0",
        "CLASSIFICATION_TYPE": "U",
        "NORAD_CAT_ID": "44850",
        "ELEMENT_SET_NO": "999",
        "REV_AT_EPOCH": "4198",
        "BSTAR": "0.00000000000000",
        "MEAN_MOTION_DOT": "0.00000029",
        "MEAN_MOTION_DDOT": "0.0000000000000",
        "SEMIMAJOR_AXIS": "25508.027",
        "PERIOD": "675.733",
        "APOAPSIS": "19167.761",
        "PERIAPSIS": "19092.023",
        "OBJECT_TYPE": "PAYLOAD",
        "RCS_SIZE": "LARGE",
        "COUNTRY_CODE": "CIS",
        "LAUNCH_DATE": "2019-12-11",
        "SITE": "PKMTR",
        "DECAY_DATE": null,
        "FILE": "4717971",
        "GP_ID": "286762851",
        "TLE_LINE0": "0 COSMOS 2544 (GLONASS)",
        "TLE_LINE1": "1 44850U 19088A   25123.36411529  .00000029  00000-0  00000-0 0  9992",
        "TLE_LINE2": "2 44850  65.3427  87.4309 0014846 262.5409  97.2679  2.13101967 41984"
    }
]